ISS (ZARYA)             
1 25544U 98067A   26158.77231137  .00008050  00000+0  15059-3 0  9998
2 25544  51.6339 346.6979 0006971 145.1134 215.0313 15.49658440570299
OSCAR 7 (AO-7)          
1 07530U 74089B   26158.65859089 -.00000042  00000+0  24842-4 0  9995
2 07530 101.9901 171.8056 0012477 147.8872 325.6416 12.53697914359320
PHASE 3B (AO-10)        
1 14129U 83058B   26158.17238869 -.00000194  00000+0  00000+0 0  9990
2 14129  25.9048 221.2242 6014266 112.9115 319.2048  2.05872980295281
UOSAT 2 (UO-11)         
1 14781U 84021B   26158.62310712  .00001380  00000+0  14607-3 0  9992
2 14781  97.8052 124.3050 0006760 205.0875 155.0016 14.90760890255706
LUSAT (LO-19)           
1 20442U 90005G   26158.83294701  .00000131  00000+0  63478-4 0  9998
2 20442  98.8852 180.3806 0010660 230.2187 129.8059 14.34120412901057
EYESAT A (AO-27)        
1 22825U 93061C   26158.69999167  .00000120  00000+0  62676-4 0  9999
2 22825  98.6881 226.1166 0009373 124.3972 235.8098 14.30939913705644
ITAMSAT (IO-26)         
1 22826U 93061D   26158.75213675  .00000110  00000+0  58283-4 0  9998
2 22826  98.6827 226.0852 0010066 109.5510 250.6760 14.31366383705962
RADIO ROSTO (RS15)      
1 23439U 94085A   26158.71493829 -.00000033  00000+0  27666-3 0  9998
2 23439  64.8186 318.5357 0155661   5.6265 354.6364 11.27583621294839
JAS-2 (FO-29)           
1 24278U 96046B   26158.84743244 -.00000016  00000+0  16281-4 0  9995
2 24278  98.5249   8.9989 0350742 120.6043 243.0183 13.53273682471904
TECHSAT 1B (GO-32)      
1 25397U 98043D   26158.72206579  .00000077  00000+0  53464-4 0  9999
2 25397  99.0065 151.2420 0000523 189.5631 170.5537 14.24426625449983
PCSAT (NO-44)           
1 26931U 01043C   26158.66033203  .00000169  00000+0  93840-4 0  9997
2 26931  67.0513 268.9120 0006106 264.2375  95.8031 14.31952913289086
SAUDISAT 1C (SO-50)     
1 27607U 02058C   26158.71470936  .00001255  00000+0  16490-3 0  9991
2 27607  64.5503 158.2927 0075448 264.2145  95.0356 14.83027325263052
CUTE-1 (CO-55)          
1 27844U 03031E   26158.55367412  .00000343  00000+0  16747-3 0  9994
2 27844  98.6735 167.2337 0008903 206.8932 153.1787 14.24330103190300
CUBESAT XI-IV (CO-57)   
1 27848U 03031J   26158.53730253  .00000294  00000+0  14824-3 0  9992
2 27848  98.6767 166.9379 0008497 227.1745 132.8720 14.23615889190001
MOZHAETS 4 (RS22)       
1 27939U 03042A   26158.85044730  .00001316  00000+0  21094-3 0  9991
2 27939  98.3473 342.9456 0010216 303.1246 169.2246 14.73452585214177
CUBESAT XI-V            
1 28895U 05043F   26158.68619350  .00001724  00000+0  27894-3 0  9990
2 28895  98.2976 314.1093 0013074 232.4490 127.5529 14.72607423100351
CUTE-1.7+APD II (CO-65) 
1 32785U 08021C   26158.83523824  .00006349  00000+0  40126-3 0  9990
2 32785  97.8271 140.0602 0010367  66.0931 294.1383 15.09362899983783
SEEDS II (CO-66)        
1 32791U 08021J   26157.55833225  .00023420  00000+0  75009-3 0  9991
2 32791  97.7518 154.9517 0002601  35.3933 324.7480 15.32385592985663
YUBILEINY (RS30)        
1 32953U 08025A   26158.84348716 -.00000013  00000+0 -16283-3 0  9998
2 32953  82.5047   1.2535 0019256 334.8979  25.1163 12.43178688818533
KKS-1 (KISEKI)          
1 33499U 09002H   26158.74379625  .00001672  00000+0  21204-3 0  9991
2 33499  98.1192  81.0366 0007120 331.1291  28.9527 14.83101188934794
SWISSCUBE               
1 35932U 09051B   26158.72700363  .00001236  00000+0  25369-3 0  9996
2 35932  98.4042  66.4504 0005489 237.5295 122.5376 14.62464842887779
BEESAT-1                
1 35933U 09051C   26158.79997948  .00000965  00000+0  20355-3 0  9999
2 35933  98.3972  66.1796 0003901 254.4807 105.5963 14.61706043887814
ITUPSAT1                
1 35935U 09051E   26158.71414139  .00000936  00000+0  20322-3 0  9991
2 35935  98.4055  65.2944 0006073 269.4937  90.5567 14.60427457887357
XIWANG-1 (HOPE-1)       
1 36122U 09072B   26158.81999028  .00000067  00000+0  29190-3 0  9996
2 36122 100.4027 112.8021 0006786 255.4062 104.6299 13.16439911791776
O/OREOS (USA 219)       
1 37224U 10062C   26158.28451084  .00002830  00000+0  27276-3 0  9990
2 37224  71.9702 102.7691 0012368  84.7913 275.4668 14.93702182115163
JUGNU                   
1 37839U 11058B   26158.29638046  .00000448  00000+0  94356-4 0  9991
2 37839  19.9622   8.5160 0018510 327.3339 207.6155 14.13774252757625
SRMSAT                  
1 37841U 11058D   26157.27188351  .00000385  00000+0  65061-4 0  9991
2 37841  19.9704 125.5359 0011947  84.3565  18.6414 14.11573396756279
STRAND-1                
1 39090U 13009E   26158.72667345  .00000341  00000+0  12915-3 0  9994
2 39090  98.3920 339.1941 0007412 257.7879 102.2478 14.37157937695701
ZACUBE-1 (TSHEPISOSAT)  
1 39417U 13066B   26158.80874128  .00004415  00000+0  34383-3 0  9997
2 39417  97.8096 121.0948 0039982 280.7328  78.9396 15.01130661679324
GOMX-1                  
1 39430U 13066Q   26158.85703958  .00002697  00000+0  40744-3 0  9997
2 39430  97.6491 359.9082 0130112 107.1807 254.3691 14.69426675668544
